[
    {
        "Altitude(m)": 553593.2433424884,
        "Argument of Periapsis(deg)": 0.006622991110713501,
        "Eccentricity": 0.0,
        "Inclination(deg)": 53.0,
        "Latitude(deg)": 16.506019870974377,
        "Longitude(deg)": 56.39607532191634,
        "Mean Anomaly(deg)": -200.81750713242243,
        "RAAN(deg)": 349.99014336852804,
        "Satellite Name": "Starlink Shell 1 1549",
        "Satellite Number": 1549,
        "Semi-Major Axis(m)": 6931778.249405717,
        "Time(s)": 190
    },
    {
        "Altitude(m)": 553571.0689655102,
        "Argument of Periapsis(deg)": 0.0069715695902247375,
        "Eccentricity": 0.0,
        "Inclination(deg)": 53.0,
        "Latitude(deg)": 16.014463350631996,
        "Longitude(deg)": 56.76341106767678,
        "Mean Anomaly(deg)": -200.1906759288657,
        "RAAN(deg)": 349.9896245984506,
        "Satellite Name": "Starlink Shell 1 1549",
        "Satellite Number": 1549,
        "Semi-Major Axis(m)": 6931778.249405717,
        "Time(s)": 200
    },
    {
        "Altitude(m)": 553551.2744510972,
        "Argument of Periapsis(deg)": 0.007320148069735974,
        "Eccentricity": 0.0,
        "Inclination(deg)": 53.0,
        "Latitude(deg)": 15.522114142110253,
        "Longitude(deg)": 57.128749338234094,
        "Mean Anomaly(deg)": -199.563844725309,
        "RAAN(deg)": 349.98910582837306,
        "Satellite Name": "Starlink Shell 1 1549",
        "Satellite Number": 1549,
        "Semi-Major Axis(m)": 6931778.249405717,
        "Time(s)": 210
    },
    {
        "Altitude(m)": 553533.891667605,
        "Argument of Periapsis(deg)": 0.007668726549247212,
        "Eccentricity": 0.0,
        "Inclination(deg)": 53.0,
        "Latitude(deg)": 15.029001542170825,
        "Longitude(deg)": 57.4921606424445,
        "Mean Anomaly(deg)": -198.9370135217523,
        "RAAN(deg)": 349.9885870582956,
        "Satellite Name": "Starlink Shell 1 1549",
        "Satellite Number": 1549,
        "Semi-Major Axis(m)": 6931778.249405717,
        "Time(s)": 220
    },
    {
        "Altitude(m)": 553518.9514048117,
        "Argument of Periapsis(deg)": 0.00801730502875845,
        "Eccentricity": 0.0,
        "Inclination(deg)": 53.0,
        "Latitude(deg)": 14.535154423037387,
        "Longitude(deg)": 57.85371467293393,
        "Mean Anomaly(deg)": -198.3101823181955,
        "RAAN(deg)": 349.98806828821813,
        "Satellite Name": "Starlink Shell 1 1549",
        "Satellite Number": 1549,
        "Semi-Major Axis(m)": 6931778.249405717,
        "Time(s)": 230
    },
    {
        "Altitude(m)": 553506.4833559664,
        "Argument of Periapsis(deg)": 0.008365883508269684,
        "Eccentricity": 0.0,
        "Inclination(deg)": 53.0,
        "Latitude(deg)": 14.040601249579966,
        "Longitude(deg)": 58.21348083732798,
        "Mean Anomaly(deg)": -197.6833511146388,
        "RAAN(deg)": 349.98754951814067,
        "Satellite Name": "Starlink Shell 1 1549",
        "Satellite Number": 1549,
        "Semi-Major Axis(m)": 6931778.249405717,
        "Time(s)": 240
    },
    {
        "Altitude(m)": 553496.5161003758,
        "Argument of Periapsis(deg)": 0.008714461987780921,
        "Eccentricity": 0.0,
        "Inclination(deg)": 53.0,
        "Latitude(deg)": 13.545370096135585,
        "Longitude(deg)": 58.5715272766467,
        "Mean Anomaly(deg)": -197.05651991108218,
        "RAAN(deg)": 349.98703074806315,
        "Satellite Name": "Starlink Shell 1 1549",
        "Satellite Number": 1549,
        "Semi-Major Axis(m)": 6931778.249405717,
        "Time(s)": 250
    },
    {
        "Altitude(m)": 553489.0770865168,
        "Argument of Periapsis(deg)": 0.009063040467292158,
        "Eccentricity": 0.0,
        "Inclination(deg)": 53.0,
        "Latitude(deg)": 13.049488662983673,
        "Longitude(deg)": 58.92792139658722,
        "Mean Anomaly(deg)": -196.42968870752546,
        "RAAN(deg)": 349.98651197798574,
        "Satellite Name": "Starlink Shell 1 1549",
        "Satellite Number": 1549,
        "Semi-Major Axis(m)": 6931778.249405717,
        "Time(s)": 260
    },
    {
        "Altitude(m)": 553484.1926157016,
        "Argument of Periapsis(deg)": 0.009411618946803396,
        "Eccentricity": 0.0,
        "Inclination(deg)": 53.0,
        "Latitude(deg)": 12.552984292485279,
        "Longitude(deg)": 59.28273039880107,
        "Mean Anomaly(deg)": -195.80285750396862,
        "RAAN(deg)": 349.9859932079083,
        "Satellite Name": "Starlink Shell 1 1549",
        "Satellite Number": 1549,
        "Semi-Major Axis(m)": 6931778.249405717,
        "Time(s)": 270
    },
    {
        "Altitude(m)": 553481.8878263085,
        "Argument of Periapsis(deg)": 0.009760197426314633,
        "Eccentricity": 0.0,
        "Inclination(deg)": 53.0,
        "Latitude(deg)": 12.055883984897523,
        "Longitude(deg)": 59.636020299275415,
        "Mean Anomaly(deg)": -195.176026300412,
        "RAAN(deg)": 349.98547443783076,
        "Satellite Name": "Starlink Shell 1 1549",
        "Satellite Number": 1549,
        "Semi-Major Axis(m)": 6931778.249405717,
        "Time(s)": 280
    },
    {
        "Altitude(m)": 553482.1866785832,
        "Argument of Periapsis(deg)": 0.01010877590582587,
        "Eccentricity": 0.0,
        "Inclination(deg)": 53.0,
        "Latitude(deg)": 11.55821441387888,
        "Longitude(deg)": 59.987856459549775,
        "Mean Anomaly(deg)": -194.54919509685527,
        "RAAN(deg)": 349.9849556677533,
        "Satellite Name": "Starlink Shell 1 1549",
        "Satellite Number": 1549,
        "Semi-Major Axis(m)": 6931778.249405717,
        "Time(s)": 290
    },
    {
        "Altitude(m)": 553485.1119399688,
        "Argument of Periapsis(deg)": 0.010457354385337106,
        "Eccentricity": 0.0,
        "Inclination(deg)": 53.0,
        "Latitude(deg)": 11.060001941697484,
        "Longitude(deg)": 60.338304117880604,
        "Mean Anomaly(deg)": -193.92236389329858,
        "RAAN(deg)": 349.98443689767583,
        "Satellite Name": "Starlink Shell 1 1549",
        "Satellite Number": 1549,
        "Semi-Major Axis(m)": 6931778.249405717,
        "Time(s)": 300
    },
    {
        "Altitude(m)": 553490.6851711002,
        "Argument of Periapsis(deg)": 0.010805932864848343,
        "Eccentricity": 0.0,
        "Inclination(deg)": 53.0,
        "Latitude(deg)": 10.561272634151207,
        "Longitude(deg)": 60.68742740747173,
        "Mean Anomaly(deg)": -193.2955326897418,
        "RAAN(deg)": 349.9839181275984,
        "Satellite Name": "Starlink Shell 1 1549",
        "Satellite Number": 1549,
        "Semi-Major Axis(m)": 6931778.249405717,
        "Time(s)": 310
    },
    {
        "Altitude(m)": 553498.9267123071,
        "Argument of Periapsis(deg)": 0.01115451134435958,
        "Eccentricity": 0.0,
        "Inclination(deg)": 53.0,
        "Latitude(deg)": 10.062052275217827,
        "Longitude(deg)": 61.03528988750528,
        "Mean Anomaly(deg)": -192.66870148618517,
        "RAAN(deg)": 349.9833993575209,
        "Satellite Name": "Starlink Shell 1 1549",
        "Satellite Number": 1549,
        "Semi-Major Axis(m)": 6931778.249405717,
        "Time(s)": 320
    },
    {
        "Altitude(m)": 553509.8556707737,
        "Argument of Periapsis(deg)": 0.011503089823870818,
        "Eccentricity": 0.0,
        "Inclination(deg)": 53.0,
        "Latitude(deg)": 9.562366381443535,
        "Longitude(deg)": 61.381955074094655,
        "Mean Anomaly(deg)": -192.0418702826284,
        "RAAN(deg)": 349.9828805874434,
        "Satellite Name": "Starlink Shell 1 1549",
        "Satellite Number": 1549,
        "Semi-Major Axis(m)": 6931778.249405717,
        "Time(s)": 330
    },
    {
        "Altitude(m)": 553523.4899082724,
        "Argument of Periapsis(deg)": 0.011851668303382053,
        "Eccentricity": 0.0,
        "Inclination(deg)": 53.0,
        "Latitude(deg)": 9.062240216083042,
        "Longitude(deg)": 61.72748545827924,
        "Mean Anomaly(deg)": -191.41503907907173,
        "RAAN(deg)": 349.9823618173659,
        "Satellite Name": "Starlink Shell 1 1549",
        "Satellite Number": 1549,
        "Semi-Major Axis(m)": 6931778.249405717,
        "Time(s)": 340
    },
    {
        "Altitude(m)": 553539.8460295204,
        "Argument of Periapsis(deg)": 0.012200246782893292,
        "Eccentricity": 0.0,
        "Inclination(deg)": 53.0,
        "Latitude(deg)": 8.561698803004557,
        "Longitude(deg)": 62.07194303680349,
        "Mean Anomaly(deg)": -190.788207875515,
        "RAAN(deg)": 349.98184304728846,
        "Satellite Name": "Starlink Shell 1 1549",
        "Satellite Number": 1549,
        "Semi-Major Axis(m)": 6931778.249405717,
        "Time(s)": 350
    },
    {
        "Altitude(m)": 553558.9393711683,
        "Argument of Periapsis(deg)": 0.012548825262404526,
        "Eccentricity": 0.0,
        "Inclination(deg)": 53.0,
        "Latitude(deg)": 8.060766940372394,
        "Longitude(deg)": 62.415389842803954,
        "Mean Anomaly(deg)": -190.16137667195824,
        "RAAN(deg)": 349.981324277211,
        "Satellite Name": "Starlink Shell 1 1549",
        "Satellite Number": 1549,
        "Semi-Major Axis(m)": 6931778.249405717,
        "Time(s)": 360
    },
    {
        "Altitude(m)": 553580.7839913907,
        "Argument of Periapsis(deg)": 0.012897403741915765,
        "Eccentricity": 0.0,
        "Inclination(deg)": 53.0,
        "Latitude(deg)": 7.559469214116169,
        "Longitude(deg)": 62.75788696352894,
        "Mean Anomaly(deg)": -189.53454546840152,
        "RAAN(deg)": 349.9808055071335,
        "Satellite Name": "Starlink Shell 1 1549",
        "Satellite Number": 1549,
        "Semi-Major Axis(m)": 6931778.249405717,
        "Time(s)": 370
    }
]